     2.100          NAVIGATION                              RINEX VERSION / TYPE
fic2rin                                 10/12/2010 00:18:22 PGM / RUN BY / DATE
                                                            END OF HEADER
10 10 10 11 10  0  0.0 -.548944808543D-04 -.113686837722D-11  .000000000000D+00
     .430000000000D+02  .128156250000D+03  .454804658725D-08 -.181716360439D+00
     .676885247231D-05  .943979748990D-02  .753439962864D-05  .515353433990D+04
     .122400000000D+06  .838190317154D-07 -.206853676674D+01  .108033418655D-06
     .951641625522D+00  .230250000000D+03  .662847637510D+00 -.828034490960D-08
     .166792661870D-09  .100000000000D+01  .160500000000D+04  .000000000000D+00
     .240000000000D+01  .000000000000D+00 -.279396772385D-08  .430000000000D+02
     .115206000000D+06  .400000000000D+01
11 10 10 11 10  0  0.0 -.957520678639D-04 -.272848410532D-11  .000000000000D+00
     .210000000000D+02 -.245937500000D+02  .608168189789D-08  .245857419920D+01
    -.141374766827D-05  .113217277685D-01  .840984284878D-05  .515377597809D+04
     .122400000000D+06 -.298023223877D-07  .290387869443D+01 -.165775418282D-06
     .888562300781D+00  .178000000000D+03  .854023823120D+00 -.860535844772D-08
    -.479305679291D-09  .100000000000D+01  .160500000000D+04  .000000000000D+00
     .240000000000D+01  .000000000000D+00 -.116415321827D-07  .210000000000D+02
     .115206000000D+06  .400000000000D+01
12 10 10 11 10  0  0.0 -.645658001304D-04  .363797880709D-11  .000000000000D+00
     .210000000000D+02 -.333750000000D+02  .418981737985D-08  .258297268467D+01
    -.169500708580D-05  .330601702444D-02  .991113483906D-05  .515359423065D+04
     .122400000000D+06 -.465661287308D-07  .106293290921D+01  .145286321640D-06
     .972189617794D+00  .193062500000D+03 -.325391082530D+00 -.771639284731D-08
     .437518224390D-09  .100000000000D+01  .160500000000D+04  .000000000000D+00
     .240000000000D+01  .000000000000D+00 -.116415321827D-07  .210000000000D+02
     .115206000000D+06  .400000000000D+01
13 10 10 11 10  0  0.0  .295190606266D-03 -.102318153949D-11  .000000000000D+00
     .300000000000D+02 -.775000000000D+01  .418017412103D-08 -.126547040920D+01
    -.234693288803D-06  .431223935448D-02  .214949250221D-05  .515369401932D+04
     .122400000000D+06 -.186264514923D-07 -.969324495662D+00  .204890966415D-07
     .991620126444D+00  .360343750000D+03  .180860911924D+01 -.815248244076D-08
     .428589281035D-10  .100000000000D+01  .160500000000D+04  .000000000000D+00
     .240000000000D+01  .000000000000D+00 -.107102096081D-07  .300000000000D+02
     .115206000000D+06  .400000000000D+01
14 10 10 11 10  0  0.0  .969311222434D-04  .352429196937D-11  .000000000000D+00
     .350000000000D+02  .126562500000D+02  .429160733410D-08 -.131370901812D+01
     .849366188049D-06  .570050475653D-02  .187940895557D-05  .515357922554D+04
     .122400000000D+06  .819563865662D-07 -.992018262525D+00  .121071934700D-06
     .984783288520D+00  .353875000000D+03 -.211228691478D+01 -.816462580372D-08
     .707172313708D-10  .100000000000D+01  .160500000000D+04  .000000000000D+00
     .240000000000D+01  .000000000000D+00 -.884756445885D-08  .350000000000D+02
     .115206000000D+06  .400000000000D+01
15 10 10 11 10  0  0.0 -.197425484657D-03  .500222085975D-11  .000000000000D+00
     .600000000000D+01  .263125000000D+02  .503306679029D-08 -.146325485618D+01
     .110082328320D-05  .283037521876D-02  .124797224998D-05  .515382731056D+04
     .122400000000D+06 -.484287738800D-07 -.106048395069D+01 -.670552253723D-07
     .952181481792D+00  .352125000000D+03 -.210136718661D+00 -.861357307561D-08
     .126076680171D-09  .100000000000D+01  .160500000000D+04  .000000000000D+00
     .240000000000D+01  .000000000000D+00 -.977888703346D-08  .600000000000D+01
     .115206000000D+06  .400000000000D+01
16 10 10 11 10  0  0.0 -.116318464279D-03 -.329691829393D-11  .000000000000D+00
     .890000000000D+02 -.186250000000D+02  .421124684391D-08  .251302090872D+00
    -.111199915409D-05  .581972242799D-02  .911951065063D-05  .515367317963D+04
     .122400000000D+06  .875443220139D-07  .108052480778D+01 -.521540641785D-07
     .973319025661D+00  .209937500000D+03 -.160982777990D+00 -.785639867911D-08
     .346443002170D-09  .100000000000D+01  .160500000000D+04  .000000000000D+00
     .240000000000D+01  .000000000000D+00 -.102445483208D-07  .890000000000D+02
     .115206000000D+06  .400000000000D+01
17 10 10 11 10  0  0.0  .173843465745D-03  .136424205266D-11  .000000000000D+00
     .950000000000D+02 -.148750000000D+02  .495520640424D-08 -.779655839818D+00
    -.856816768646D-06  .563166511711D-02  .579655170441D-05  .515365673447D+04
     .122400000000D+06  .143423676491D-06  .212394636895D+01  .117346644402D-06
     .960336141192D+00  .269906250000D+03 -.251273731035D+01 -.820891336276D-08
    -.147863301957D-09  .100000000000D+01  .160500000000D+04  .000000000000D+00
     .240000000000D+01  .000000000000D+00 -.102445483208D-07  .950000000000D+02
     .115206000000D+06  .400000000000D+01
18 10 10 11 10  0  0.0  .981688499451D-04  .227373675443D-11  .000000000000D+00
     .290000000000D+02  .119437500000D+03  .490341853278D-08  .563980434312D+00
     .620074570179D-05  .118512997869D-01  .846758484840D-05  .515374037552D+04
     .122400000000D+06 -.208616256714D-06 -.207066585383D+01  .167638063431D-06
     .935589293152D+00  .203718750000D+03 -.228789159262D+01 -.840070706603D-08
     .635740766869D-10  .100000000000D+01  .160500000000D+04  .000000000000D+00
     .240000000000D+01  .000000000000D+00 -.107102096081D-07  .290000000000D+02
     .115206000000D+06  .400000000000D+01
20 10 10 11 10  0  0.0  .503398478031D-04 -.341060513165D-12  .000000000000D+00
     .200000000000D+02  .112687500000D+03  .485663086960D-08  .948081703614D+00
     .576116144657D-05  .425523694139D-02  .783242285252D-05  .515382007790D+04
     .122400000000D+06 -.484287738800D-07 -.212463564182D+01 -.111758708954D-07
     .935615134137D+00  .213187500000D+03  .126727693748D+01 -.833463288520D-08
     .111433213069D-09  .100000000000D+01  .160500000000D+04  .000000000000D+00
     .240000000000D+01  .000000000000D+00 -.791624188423D-08  .200000000000D+02
     .115206000000D+06  .400000000000D+01
21 10 10 11 10  0  0.0 -.943550840020D-04 -.272848410532D-11  .000000000000D+00
     .320000000000D+02 -.490625000000D+01  .505735351622D-08  .174268752899D+01
    -.245869159698D-06  .168871624628D-01  .103041529655D-04  .515362785721D+04
     .122400000000D+06 -.379979610443D-06 -.312636137521D+01 -.186264514923D-08
     .932674077779D+00  .171218750000D+03 -.243983373877D+01 -.826355849609D-08
    -.600739308918D-09  .100000000000D+01  .160500000000D+04  .000000000000D+00
     .240000000000D+01  .000000000000D+00 -.121071934700D-07  .320000000000D+02
     .115206000000D+06  .400000000000D+01
22 10 10 11 10  0  0.0  .161197036505D-03 -.682121026330D-12  .000000000000D+00
     .230000000000D+02  .110031250000D+03  .501699469225D-08 -.334989909789D+00
     .580213963985D-05  .558042700868D-02  .807270407677D-05  .515372380257D+04
     .122400000000D+06 -.279396772385D-07 -.206604522122D+01  .126659870148D-06
     .933276065643D+00  .211500000000D+03 -.192759072919D+01 -.837963475971D-08
     .201079804352D-09  .100000000000D+01  .160500000000D+04  .000000000000D+00
     .240000000000D+01  .000000000000D+00 -.176951289177D-07  .230000000000D+02
     .115206000000D+06  .400000000000D+01
23 10 10 11 10  0  0.0  .349480193108D-03 -.193267624127D-11  .000000000000D+00
     .920000000000D+02  .362500000000D+01  .468555231492D-08 -.207775581608D+01
     .838190317154D-07  .699073693249D-02  .168941915035D-05  .515363463402D+04
     .122400000000D+06 -.167638063431D-07 -.103341946445D+01 -.122934579849D-06
     .966522764696D+00  .355937500000D+03  .311406178321D+01 -.836534845034D-08
     .960754304987D-10  .100000000000D+01  .160500000000D+04  .000000000000D+00
     .240000000000D+01  .000000000000D+00 -.200234353542D-07  .920000000000D+02
     .115206000000D+06  .400000000000D+01
24 10 10 11 10  0  0.0  .329155474901D-03  .329691829393D-11  .000000000000D+00
     .200000000000D+01  .928125000000D+01  .452840291187D-08 -.203264039389D+01
     .528991222382D-06  .575534265954D-02  .106114894152D-04  .515476421165D+04
     .122400000000D+06 -.111758708954D-06 -.308546776198D+01  .111758708954D-07
     .949298516448D+00  .169437500000D+03 -.360342048961D+00 -.794675958586D-08
    -.364300888880D-09  .100000000000D+01  .160500000000D+04  .000000000000D+00
     .240000000000D+01  .000000000000D+00 -.139698386192D-08  .200000000000D+01
     .115206000000D+06  .400000000000D+01
26 10 10 11 10  0  0.0 -.275881029665D-04 -.738964445191D-11  .000000000000D+00
     .560000000000D+02  .503125000000D+01  .416267339206D-08 -.235321136470D+01
     .800937414169D-07  .198451841716D-01  .895932316780D-06  .515364034081D+04
     .122400000000D+06  .230967998505D-06 -.973283361182D+00 -.745058059692D-07
     .989311091658D+00  .373437500000D+03  .111271312218D+01 -.793640201157D-08
     .193579491934D-09  .100000000000D+01  .160500000000D+04  .000000000000D+00
     .240000000000D+01  .000000000000D+00 -.605359673500D-08  .560000000000D+02
     .115206000000D+06  .400000000000D+01
27 10 10 11 10  0  0.0  .197101850063D-03  .352429196937D-11  .000000000000D+00
     .350000000000D+02 -.106281250000D+03  .419946063868D-08 -.121702296580D+01
    -.524334609509D-05  .216248492943D-01  .754557549953D-05  .515357307816D+04
     .122400000000D+06 -.424683094025D-06 -.463557558176D-01  .244006514549D-06
     .979843938730D+00  .249875000000D+03 -.136379176694D+01 -.819891294621D-08
    -.996470078407D-10  .100000000000D+01  .160500000000D+04  .000000000000D+00
     .240000000000D+01  .000000000000D+00 -.419095158577D-08  .350000000000D+02
     .115206000000D+06  .400000000000D+01
